     2.10           GLONASS NAV DATA                        RINEX VERSION / TYPE
SPIDER V4,0,0,3554                      2015 03 24 06:49    PGM / RUN BY / DATE 
  2015     1    21   -1.396983861923e-008                    CORR TO SYSTEM TIME 
    16                                                      LEAP SECONDS        
                                                            END OF HEADER       
15 15 01 21 11 45  0.0 3.738980740309D-05-0.000000000000D+00 4.140000000000D+04
    2.103743994141D+04 6.504564285278D-01 6.519258022308D-09 0.000000000000D+00
    1.353681787109D+04 2.117052078247D-01 0.000000000000D+00 0.000000000000D+00
   -4.674281738281D+03 3.540957450867D+00-1.862645149231D-09 0.000000000000D+00
19 15 01 21 11 45  0.0-1.162327826023D-04-9.094947017729D-13 4.140000000000D+04
    2.366353710938D+04-2.690410614014D-02 4.656612873077D-09 0.000000000000D+00
   -9.508592285156D+03-2.025766372681D-01 3.725290298462D-09 3.000000000000D+00
    3.631767578125D+02-3.587111473083D+00-1.862645149231D-09 0.000000000000D+00
21 15 01 21 11 45  0.0-4.713423550129D-06 1.818989403546D-12 4.263000000000D+04
   -2.805048828125D+03 2.920010566711D+00-3.725290298462D-09 0.000000000000D+00
   -1.054193212891D+04-1.201321601868D+00 0.000000000000D+00 4.000000000000D+00
    2.306026562500D+04-1.968564987183D-01-1.862645149231D-09 6.000000000000D+00
 5 15 01 21 12 15  0.0 7.487833499908D-07 0.000000000000D+00 4.320000000000D+04
    1.080827734375D+04 9.572982788086D-03-0.000000000000D+00 0.000000000000D+00
   -5.369886718750D+03 3.078034400940D+00 9.313225746155D-10 1.000000000000D+00
    2.245510351563D+04 7.316675186157D-01-3.725290298462D-09 0.000000000000D+00
 4 15 01 21 12 15  0.0 1.062843948603D-04 9.094947017729D-13 4.320000000000D+04
    9.382662597656D+03 1.049356460571D-01 9.313225746155D-10 0.000000000000D+00
    1.357623437500D+04 2.661551475525D+00-1.862645149231D-09 6.000000000000D+00
    1.945457617188D+04-1.908997535706D+00-2.793967723846D-09 0.000000000000D+00
13 15 01 21 12 15  0.0-4.688361659646D-04-9.094947017729D-13 4.320000000000D+04
   -5.961105468750D+03-2.768584251404D+00-3.725290298462D-09 0.000000000000D+00
    8.789127929688D+03-1.565484046936D+00-9.313225746155D-10-2.000000000000D+00
    2.317906396484D+04-1.182355880737D-01-1.862645149231D-09 0.000000000000D+00
14 15 01 21 12 15  0.0 1.219045370817D-04 4.547473508865D-12 4.320000000000D+04
    1.139104541016D+04-1.922248840332D+00 9.313225746155D-10 0.000000000000D+00
    1.535729101563D+04-1.308011054993D+00-1.862645149231D-09-7.000000000000D+00
    1.690608349609D+04 2.474958419800D+00-2.793967723846D-09 0.000000000000D+00
15 15 01 21 12 15  0.0 3.738980740309D-05-0.000000000000D+00 4.320000000000D+04
    2.156040917969D+04-9.585571289063D-02 5.587935447693D-09 0.000000000000D+00
    1.340489794922D+04-3.247537612915D-01-0.000000000000D+00 0.000000000000D+00
    1.798486816406D+03 3.603975296021D+00-2.793967723846D-09 0.000000000000D+00
19 15 01 21 12 15  0.0-1.162346452475D-04-9.094947017729D-13 4.320000000000D+04
    2.288446728516D+04-8.152160644531D-01 5.587935447693D-09 0.000000000000D+00
   -9.511871093750D+03 2.335577011108D-01 2.793967723846D-09 3.000000000000D+00
   -6.024205566406D+03-3.463866233826D+00-9.313225746155D-10 0.000000000000D+00
20 15 01 21 12 15  0.0-1.541897654533D-04-9.094947017729D-13 4.320000000000D+04
    1.678448144531D+04 1.294647216797D+00 1.862645149231D-09 0.000000000000D+00
   -1.540091308594D+04-9.187755584717D-01 2.793967723846D-09 2.000000000000D+00
    1.153845703125D+04-3.107270240784D+00-2.793967723846D-09 0.000000000000D+00
21 15 01 21 12 15  0.0-4.710629582405D-06 1.818989403546D-12 4.332000000000D+04
    2.170776367188D+03 2.566202163696D+00-1.862645149231D-09 0.000000000000D+00
   -1.302866210938D+04-1.532156944275D+00 9.313225746155D-10 4.000000000000D+00
    2.181927148438D+04-1.173170089722D+00-1.862645149231D-09 6.000000000000D+00
 6 15 01 21 12 15  0.0 6.116926670074D-05 0.000000000000D+00 4.485000000000D+04
    5.509449218750D+03-9.860038757324D-02-9.313225746155D-10 0.000000000000D+00
   -2.187014257813D+04 1.636098861694D+00 2.793967723846D-09-4.000000000000D+00
    1.192430126953D+04 3.038241386414D+00-1.862645149231D-09 0.000000000000D+00
 5 15 01 21 12 45  0.0 7.497146725655D-07 0.000000000000D+00 4.500000000000D+04
    1.123053369141D+04 4.583320617676D-01 0.000000000000D+00 0.000000000000D+00
    2.392817382813D+02 3.103084564209D+00-0.000000000000D+00 1.000000000000D+00
    2.288562597656D+04-2.564001083374D-01-3.725290298462D-09 0.000000000000D+00
 4 15 01 21 12 45  0.0 1.062871888280D-04 9.094947017729D-13 4.500000000000D+04
    9.869816894531D+03 4.071311950684D-01 9.313225746155D-10 0.000000000000D+00
    1.785811474609D+04 2.058738708496D+00-1.862645149231D-09 6.000000000000D+00
    1.531095605469D+04-2.665175437927D+00-2.793967723846D-09 0.000000000000D+00
15 15 01 21 12 45  0.0 3.738980740309D-05 0.000000000000D+00 4.500000000000D+04
    2.062906689453D+04-9.469699859619D-01 3.725290298462D-09 0.000000000000D+00
    1.250720751953D+04-6.301565170288D-01-1.862645149231D-09 0.000000000000D+00
    8.131292480469D+03 3.386515617371D+00-2.793967723846D-09 0.000000000000D+00
 6 15 01 21 12 45  0.0 6.117112934589D-05 0.000000000000D+00 4.500000000000D+04
    5.608577636719D+03 2.373361587524D-01-0.000000000000D+00 0.000000000000D+00
   -1.829560791016D+04 2.300869941711D+00 1.862645149231D-09-4.000000000000D+00
    1.686154492188D+04 2.411890983582D+00-1.862645149231D-09 0.000000000000D+00
14 15 01 21 12 45  0.0 1.219129189849D-04 4.547473508865D-12 4.500000000000D+04
    7.319903808594D+03-2.573346138000D+00-0.000000000000D+00 0.000000000000D+00
    1.307076806641D+04-1.191273689270D+00-1.862645149231D-09-7.000000000000D+00
    2.065086083984D+04 1.658766746521D+00-2.793967723846D-09 0.000000000000D+00
19 15 01 21 12 45  0.0-1.162365078926D-04-9.094947017729D-13 4.500000000000D+04
    2.084157958984D+04-1.416590690613D+00 6.519258022308D-09 0.000000000000D+00
   -8.565536132813D+03 8.389959335327D-01 9.313225746155D-10 3.000000000000D+00
   -1.194552929688D+04-3.072633743286D+00-0.000000000000D+00 0.000000000000D+00
20 15 01 21 12 45  0.0-1.541925594211D-04-9.094947017729D-13 4.500000000000D+04
    1.839074267578D+04 4.945812225342D-01 3.725290298462D-09 0.000000000000D+00
   -1.681692089844D+04-6.115236282349D-01 2.793967723846D-09 2.000000000000D+00
    5.572715332031D+03-3.478420257568D+00-2.793967723846D-09 0.000000000000D+00
21 15 01 21 12 45  0.0-4.707835614681D-06 1.818989403546D-12 4.512000000000D+04
    6.303878906250D+03 1.997786521912D+00-0.000000000000D+00 0.000000000000D+00
   -1.592799902344D+04-1.648009300232D+00 1.862645149231D-09 4.000000000000D+00
    1.889108642578D+04-2.059324264526D+00-2.793967723846D-09 6.000000000000D+00
16 15 01 21 12 45  0.0-2.460554242134D-05 1.818989403546D-12 4.518000000000D+04
    2.274847558594D+04 1.450902938843D+00 7.450580596924D-09 0.000000000000D+00
    3.869253417969D+03 4.106311798096D-01-0.000000000000D+00-1.000000000000D+00
   -1.098857080078D+04 3.149155616760D+00-9.313225746155D-10 0.000000000000D+00
16 15 01 21 13 15  0.0-2.460088580847D-05 1.818989403546D-12 4.680000000000D+04
    2.471311425781D+04 7.024126052856D-01 6.519258022308D-09 0.000000000000D+00
    4.199384277344D+03-1.282119750977D-02-1.862645149231D-09-1.000000000000D+00
   -4.970503417969D+03 3.494430541992D+00-1.862645149231D-09 0.000000000000D+00
 4 15 01 21 13 15  0.0 1.062899827957D-04 9.094947017729D-13 4.680000000000D+04
    1.072313818359D+04 5.019397735596D-01 0.000000000000D+00 0.000000000000D+00
    2.088071679688D+04 1.278514862061D+00-2.793967723846D-09 6.000000000000D+00
    9.983765625000D+03-3.215518951416D+00-1.862645149231D-09 0.000000000000D+00
 5 15 01 21 13 15  0.0 7.515773177147D-07 0.000000000000D+00 4.680000000000D+04
    1.242170849609D+04 8.464841842651D-01 0.000000000000D+00 0.000000000000D+00
    5.620933593750D+03 2.829192161560D+00-9.313225746155D-10 1.000000000000D+00
    2.154410351563D+04-1.224455833435D+00-3.725290298462D-09 0.000000000000D+00
 6 15 01 21 13 15  0.0 6.117206066847D-05 0.000000000000D+00 4.680000000000D+04
    6.441570312500D+03 7.019338607788D-01-0.000000000000D+00 0.000000000000D+00
   -1.373459375000D+04 2.720949172974D+00 9.313225746155D-10-4.000000000000D+00
    2.049459228516D+04 1.598506927490D+00-2.793967723846D-09 0.000000000000D+00
14 15 01 21 13 15  0.0 1.219213008881D-04 3.637978807092D-12 4.680000000000D+04
    2.256459472656D+03-3.009721755981D+00-2.793967723846D-09 0.000000000000D+00
    1.119848486328D+04-8.594665527344D-01-9.313225746155D-10-7.000000000000D+00
    2.279993017578D+04 7.133941650391D-01-1.862645149231D-09 0.000000000000D+00
15 15 01 21 13 15  0.0 3.738980740309D-05 0.000000000000D+00 4.680000000000D+04
    1.815894580078D+04-1.785341262817D+00 1.862645149231D-09 0.000000000000D+00
    1.129456640625D+04-6.734457015991D-01-1.862645149231D-09 0.000000000000D+00
    1.383171826172D+04 2.906043052673D+00-2.793967723846D-09 0.000000000000D+00
20 15 01 21 13 15  0.0-1.541962847114D-04-9.094947017729D-13 4.680000000000D+04
    1.861484033203D+04-2.229614257813D-01 5.587935447693D-09 0.000000000000D+00
   -1.745913720703D+04-6.693553924561D-02 1.862645149231D-09 2.000000000000D+00
   -8.225786132813D+02-3.581461906433D+00-1.862645149231D-09 0.000000000000D+00
21 15 01 21 13 15  0.0-4.705972969532D-06 1.818989403546D-12 4.686000000000D+04
    9.292392089844D+03 1.312517166138D+00 9.313225746155D-10 0.000000000000D+00
   -1.880105175781D+04-1.497951507568D+00 1.862645149231D-09 4.000000000000D+00
    1.450126269531D+04-2.786622047424D+00-2.793967723846D-09 0.000000000000D+00
